01566   16.9   0.15 K167V  39.42159   31.38168   88.01237   22.82683  0.8268744  0.88049882   1.0780780  0 MPO350811  1017  33 1949-2015 1.08 M-v 3Eh MPCW       9803   (1566) Icarus             20150731
01620   15.60  0.15 K167V 322.32014  276.86945  337.21625   13.33747  0.3353926  0.70916069   1.2453926  0 MPO374863  3608  31 1951-2016 1.78 M-v 3Eh MPCW       9803   (1620) Geographos         20160402
01862   16.25  0.09 K167V  34.40309  285.98308   35.63767    6.35533  0.5599083  0.55297967   1.4700427  0 MPO374866  1309  26 1957-2016 0.51 M-h 3Eh MPCLINUX   9803   (1862) Apollo             20160407
01981   15.2   0.15 K167V  89.90321  267.79493  356.90511   39.83302  0.6500564  0.41638082   1.7761334  1 MPO350815   529  21 1973-2015 0.45 M-h 3Eh MPCLINUX   9803   (1981) Midas              20150224
02101   18.8   0.15 K167V 158.36834   43.27868  349.79505    1.32859  0.7641899  0.38400505   1.8746121  1 MPO256878    91   8 1936-2013 0.86 M-h 3Eh MPCLINUX   8803   (2101) Adonis             20130313
02102   16.0   0.15 K167V 220.31828   61.55610   94.36762   64.00335  0.2991363  0.67265001   1.2900601  1 MPO305442   673  16 1975-2014 0.48 M-h 3Eh MPCLINUX   9803   (2102) Tantalus           20140727
02135   17.94  0.15 K167V 180.88907  290.87900  191.21874   23.06151  0.5029684  0.48719775   1.5995551  3 MPO298973    45   9 1977-2014 0.65 M-h 3Eh MPCLINUX   D803   (2135) Aristaeus          20140627
02201   15.25  0.15 K167V 132.82105   98.24464   75.00192    2.52231  0.7130956  0.30728734   2.1749015  0 MPO344315   817  24 1931-2015 0.53 M-v 3Eh MPCW       9803   (2201) Oljato             20150818
02340   20.2   0.15 K167V 198.80649   39.98051  211.43522    5.85666  0.4498986  1.27141788   0.8438732  2 MPO365273   321   7 1976-2014 0.62 M-h 3Eh MPCLINUX   C802   (2340) Hathor             20141206
03122   14.1   0.15 K167V 183.86408   27.76524  336.11668   22.15571  0.4227693  0.41896468   1.7688233  1 MPO374883  1873  23 1979-2016 0.43 M-h 3Eh MPCLINUX   9804   (3122) Florence           20160413
03200   14.6   0.15 K167V 346.37184  322.15391  265.25115   22.24582  0.8899022  0.68767052   1.2712055  0 MPO370999  3132  30 1983-2015 0.48 M-v 3Eh MPCW       9803   (3200) Phaethon           20151217
03361   19.03  0.15 K167V 323.62630  301.77368  189.40041    2.68467  0.3227731  0.74073093   1.2097503  1 MPO298984   620  14 1982-2014 0.53 M-h 3Eh MPCLINUX   8803   (3361) Orpheus            20140627
03362   18.3   0.15 K167V 236.01470   55.03904  152.45174    9.91714  0.4685608  1.00132449   0.9895084  3 MPO 73856   251  18 1984-2004 0.68 M-v 3Eh MPCW       C802   (3362) Khufu              20041127
03671   16.5   0.15 K167V 304.85569  204.22774   82.09760   13.53067  0.5411928  0.30219058   2.1992880  0 MPO374890   483  13 1984-2016 0.59 M-h 3Eh MPCLINUX   9804   (3671) Dionysus           20160329
03757   18.95  0.15 K167V 183.96147   17.16238   74.97311    3.86806  0.4455588  0.39663724   1.8345958  0 MPO302085   150   7 1982-2014 0.88 M-v 3Eh MPCW       8804   (3757) Anagolay           20140730
04015   15.99  0.15 K167V 207.63042   93.99178  267.95759    2.77347  0.6292963  0.23039977   2.6352067  0 MPO374894   859  18 1949-2016 0.51 M-h 3Eh MPCLINUX   9803   (4015) Wilson-Harrington  20160402
04034   18.4   0.15 K167V  69.74899  296.62536  157.96050   11.16895  0.4440169  0.90344222   1.0597476  1 MPO344332   465  16 1986-2015 0.51 M-h 3Eh MPCLINUX   8803   (4034) Vishnu             20150706
04179   15.30  0.10 K167V 330.74565  278.71611  124.37223    0.44715  0.6293705  0.24422017   2.5348272  0 MPO344333  5320  25 1934-2015 0.57 M-v 3Eh MPCW       9803   (4179) Toutatis           20150719
04183   14.4   0.15 K167V 197.06022  236.30713  294.91781    6.70543  0.6343914  0.35309840   1.9824651  0 MPO371010  1763  25 1986-2015 0.50 M-v 3Eh MPCW       9803   (4183) Cuno               20151025
04450   17.1   0.15 K167V 285.11473  291.77693  311.84973    5.51995  0.5865981  0.56904684   1.4422395  0 MPO371013   859  20 1987-2015 0.50 M-h 3Eh MPCLINUX   9803   (4450) Pan                20151213
04486   15.6   0.15 K167V 331.11028  168.86597   82.24522    3.03933  0.6628247  0.30208842   2.1997838  0 MPO371014   694  22 1987-2015 0.52 M-v 3Eh MPCW       9803   (4486) Mithra             20151217
04581   20.7   0.15 K167V 232.48665  255.28613  180.26630    4.91930  0.3570129  0.95331218   1.0224591  0 MPO344337   176   7 1989-2015 0.50 M-v 3Eh MPCW       8803   (4581) Asclepius          20150810
04660   18.2   0.15 K167V   2.30518  158.02851  314.45463    1.43174  0.3599613  0.54261006   1.4887125  0 MPO365303   519  12 1981-2015 0.58 M-v 3Eh MPCW       9803   (4660) Nereus             20150524
04769   16.9   0.15 K167V 147.00570  121.36620  325.58280    8.88537  0.4831416  0.89888618   1.0633255  0 MPO374903   249  15 1989-2016 0.70 M-v 3Eh MPCW       9803   (4769) Castalia           20160418
04953   14.1   0.15 K167V 292.69584   77.76132   77.72743   24.38829  0.6575988  0.47747878   1.6211878  0 MPO347563   203  21 1974-2015 0.70 M-v 3Eh MPCW       9803   (4953) 1990 MU            20150916
05011   16.4   0.15 K167V 200.57864  105.75197   10.77995    7.40758  0.4999117  0.47115953   1.6356513  1 MPO305460   528  18 1960-2014 0.47 M-h 3Eh MPCLINUX   9803   (5011) Ptah               20140730
05189   17.8   0.15 K167V 168.34372  159.65125  135.33657    3.58368  0.4781127  0.51008434   1.5513438  1 MPO374909   259  14 1990-2016 0.43 M-h 3Eh MPCLINUX   9803   (5189) 1990 UQ            20160306
05604   17.1   0.15 K167V 205.90982   82.43510  312.12476    4.73950  0.4060360  1.10120965   0.9287298  2 MPO374913   330  13 1985-2016 0.59 M-h 3Eh MPCLINUX   9802   (5604) 1992 FE            20160328
05693   16.6   0.15 K167V 299.27247  258.87189   97.06226    5.05456  0.5853905  0.68778083   1.2710696  1 MPO374914   954  21 1986-2016 0.51 M-h 3Eh MPCLINUX   9803   (5693) 1993 EA            20160411
06037   18.7   0.15 K167V 346.86377  242.07153  182.48067    3.49965  0.4995655  0.68768166   1.2711918  0 MPO299005   395  12 1988-2014 0.69 M-v 3Eh MPCW       8803   (6037) 1988 EG            20140628
06239   18.5   0.15 K167V 350.90898  239.66220  344.61727    3.94493  0.4127793  0.79766244   1.1514806  1 MPO371031   870  15 1983-2015 0.45 M-h 3Eh MPCLINUX   8803   (6239) Minos              20151202
06489   19.2   0.15 K167V 117.31877   68.55815  209.54991    2.26661  0.6125058  0.25162267   2.4848654  0 MPO355155   935   7 1991-2015 0.71 M-v 3Eh MPCW       8803   (6489) Golevka            20151013